NORAD_CAT_ID,OBJECT_NAME,OBJECT_TYPE,EPOCH,MEAN_MOTION,ECCENTRICITY,INCLINATION,RA_OF_ASC_NODE,ARG_OF_PERICENTER,MEAN_ANOMALY,BSTAR,MEAN_MOTION_DOT,MEAN_MOTION_DDOT,TLE_LINE0,TLE_LINE1,TLE_LINE2,SEMIMAJOR_AXIS,PERIOD,APOGEE,PERIGEE,DECAYED
55754.0,STARLINK-5612,PAYLOAD,2023-04-15 14:00:01,15.37304832,0.0003224,70.0021,36.316,268.1078,287.2032,-0.025114,-0.00850401,0.0,0 STARLINK-5612,1 55754U 23028P   23105.58334491 -.00850401  00000-0 -25114-1 0  9993,2 55754  70.0021  36.3160 0003224 268.1078 287.2032 15.37304832  1304,6832.22,93.67,456.288,451.882,0.0
55754.0,STARLINK-5612,PAYLOAD,2023-04-15 22:00:01,15.3671709,0.0003232,70.0026,35.4241,266.2873,332.94,-0.029261,-0.00961877,0.0,0 STARLINK-5612,1 55754U 23028P   23105.91668981 -.00961877  00000-0 -29261-1 0  9991,2 55754  70.0026  35.4241 0003232 266.2873 332.9400 15.36717090  7407,6833.962,93.706,458.036,453.618,0.0
55754.0,STARLINK-5612,PAYLOAD,2023-04-16 10:00:00,15.35738701,0.0003194,70.0022,34.0878,272.559,210.9447,-0.030315,-0.00965222,0.0,0 STARLINK-5612,1 55754U 23028P   23106.41667824 -.00965222  00000-0 -30315-1 0  9992,2 55754  70.0022  34.0878 0003194 272.5590 210.9447 15.35738701  7482,6836.864,93.766,460.913,456.546,0.0
55754.0,STARLINK-5612,PAYLOAD,2023-04-16 22:00:00,15.34758411,0.0003334,70.003,32.7534,270.0579,96.0271,-0.031068,-0.00959171,0.0,0 STARLINK-5612,1 55754U 23028P   23106.91667824 -.00959171  00000-0 -31068-1 0  9999,2 55754  70.0030  32.7534 0003334 270.0579  96.0271 15.34758411  1303,6839.775,93.826,463.921,459.36,0.0
55754.0,STARLINK-5612,PAYLOAD,2023-04-17 14:00:01,15.33385221,0.0003196,70.0029,30.9774,271.6836,175.1233,-0.027992,-0.00836956,0.0,0 STARLINK-5612,1 55754U 23028P   23107.58334491 -.00836956  00000-0 -27992-1 0  9990,2 55754  70.0029  30.9774 0003196 271.6836 175.1233 15.33385221  7662,6843.858,93.91,467.91,463.536,0.0
55754.0,STARLINK-5612,PAYLOAD,2023-04-17 22:00:00,15.32795669,0.000315,70.0032,30.0908,272.252,213.7172,-0.032842,-0.00953139,0.0,0 STARLINK-5612,1 55754U 23028P   23107.91667824 -.00953139  00000-0 -32842-1 0  9999,2 55754  70.0032  30.0908 0003150 272.2520 213.7172 15.32795669  1309,6845.613,93.946,469.634,465.321,0.0
55754.0,STARLINK-5612,PAYLOAD,2023-04-18 14:00:01,15.31432462,0.0003066,70.0032,28.3203,269.6086,292.3826,-0.029854,-0.00839214,0.0,0 STARLINK-5612,1 55754U 23028P   23108.58334491 -.00839214  00000-0 -29854-1 0  9990,2 55754  70.0032  28.3203 0003066 269.6086 292.3826 15.31432462  1307,6849.675,94.03,473.64,469.44,0.0
55754.0,STARLINK-5612,PAYLOAD,2023-04-18 18:00:00,15.31169629,0.0003232,70.0033,27.8784,269.8833,130.5999,-0.034046,-0.00940084,0.0,0 STARLINK-5612,1 55754U 23028P   23108.75001157 -.00940084  00000-0 -34046-1 0  9996,2 55754  70.0033  27.8784 0003232 269.8833 130.5999 15.31169629  7844,6850.458,94.046,474.538,470.109,0.0
55754.0,STARLINK-5612,PAYLOAD,2023-04-18 22:00:00,15.30831843,0.0003119,70.0034,27.4366,270.3037,328.5086,-0.034498,-0.00942337,0.0,0 STARLINK-5612,1 55754U 23028P   23108.91667824 -.00942337  00000-0 -34498-1 0  9997,2 55754  70.0034  27.4366 0003119 270.3037 328.5086 15.30831843  1308,6851.466,94.067,475.468,471.194,0.0
55754.0,STARLINK-5612,PAYLOAD,2023-04-19 14:00:01,15.29478472,0.0003209,70.0033,25.6715,269.3032,40.8333,-0.031871,-0.00842842,0.0,0 STARLINK-5612,1 55754U 23028P   23109.58334491 -.00842842  00000-0 -31871-1 0  9994,2 55754  70.0033  25.6715 0003209 269.3032  40.8333 15.29478472  1300,6855.507,94.15,479.572,475.172,0.0
55754.0,STARLINK-5612,PAYLOAD,2023-04-19 22:00:00,15.2887296,0.0003234,70.0034,24.7904,271.2875,73.3257,-0.036532,-0.00951364,0.0,0 STARLINK-5612,1 55754U 23028P   23109.91667824 -.00951364  00000-0 -36532-1 0  9999,2 55754  70.0034  24.7904 0003234 271.2875  73.3257 15.28872960  1301,6857.317,94.187,481.4,476.965,0.0
55754.0,STARLINK-5612,PAYLOAD,2023-04-20 06:00:00,15.28218732,0.0003213,70.003,23.91,277.5852,100.7233,-0.036507,-0.00921649,0.0,0 STARLINK-5612,1 55754U 23028P   23110.25001157 -.00921649  00000-0 -36507-1 0  9994,2 55754  70.0030  23.9100 0003213 277.5852 100.7233 15.28218732  8078,6859.274,94.227,483.343,478.935,0.0
55754.0,STARLINK-5612,PAYLOAD,2023-04-20 14:00:01,15.27523477,0.0003197,70.0033,23.0306,272.0295,139.2118,-0.033916,-0.00844505,0.0,0 STARLINK-5612,1 55754U 23028P   23110.58334491 -.00844505  00000-0 -33916-1 0  9996,2 55754  70.0033  23.0306 0003197 272.0295 139.2118 15.27523477  1304,6861.355,94.27,485.414,481.027,0.0
55754.0,STARLINK-5612,PAYLOAD,2023-04-20 22:00:00,15.26912578,0.0003188,70.0035,22.152,273.5093,169.8658,-0.038577,-0.009465,0.0,0 STARLINK-5612,1 55754U 23028P   23110.91667824 -.00946500  00000-0 -38577-1 0  9998,2 55754  70.0035  22.1520 0003188 273.5093 169.8658 15.26912578  1307,6863.185,94.308,487.238,482.862,0.0
55754.0,STARLINK-5612,PAYLOAD,2023-04-21 14:00:01,15.25571516,0.0003036,70.0031,20.3974,271.679,233.6253,-0.036282,-0.00850878,0.0,0 STARLINK-5612,1 55754U 23028P   23111.58334491 -.00850878  00000-0 -36282-1 0  9996,2 55754  70.0031  20.3974 0003036 271.6790 233.6253 15.25571516  8277,6867.207,94.391,491.157,486.987,0.0
55754.0,STARLINK-5612,PAYLOAD,2023-04-21 22:00:00,15.24949226,0.0003061,70.0033,19.5214,272.8035,262.2916,-0.040469,-0.00936443,0.0,0 STARLINK-5612,1 55754U 23028P   23111.91667824 -.00936443  00000-0 -40469-1 0  9997,2 55754  70.0033  19.5214 0003061 272.8035 262.2916 15.24949226  8325,6869.075,94.429,493.043,488.837,0.0
55754.0,STARLINK-5612,PAYLOAD,2023-04-22 14:00:01,15.23617978,0.0003054,70.0029,17.7718,268.5957,323.7328,-0.038736,-0.00856259,0.0,0 STARLINK-5612,1 55754U 23028P   23112.58334491 -.00856259  00000-0 -38736-1 0  9992,2 55754  70.0029  17.7718 0003054 268.5957 323.7328 15.23617978  1302,6873.076,94.512,497.04,492.841,0.0
55754.0,STARLINK-5612,PAYLOAD,2023-04-22 22:00:01,15.22988223,0.0003124,70.0032,16.8984,270.761,349.0778,-0.042485,-0.00927814,0.0,0 STARLINK-5612,1 55754U 23028P   23112.91668981 -.00927814  00000-0 -42485-1 0  9995,2 55754  70.0032  16.8984 0003124 270.7610 349.0778 15.22988223  8478,6874.97,94.551,498.983,494.687,0.0
55754.0,STARLINK-5612,PAYLOAD,2023-04-23 14:00:01,15.216608,0.0003237,70.0027,15.1541,265.9231,46.3912,-0.041115,-0.00857513,0.0,0 STARLINK-5612,1 55754U 23028P   23113.58334491 -.00857513  00000-0 -41115-1 0  9992,2 55754  70.0027  15.1541 0003237 265.9231  46.3912 15.21660800  1302,6878.968,94.633,503.059,498.606,0.0
55754.0,STARLINK-5612,PAYLOAD,2023-04-23 22:00:00,15.21030007,0.0003233,70.003,14.2832,269.0888,68.3243,-0.044864,-0.00924943,0.0,0 STARLINK-5612,1 55754U 23028P   23113.91667824 -.00924943  00000-0 -44864-1 0  9994,2 55754  70.0030  14.2832 0003233 269.0888  68.3243 15.21030007  1309,6880.869,94.673,504.959,500.51,0.0
55754.0,STARLINK-5612,PAYLOAD,2023-04-24 14:00:01,15.19707637,0.0003243,70.0025,12.544,266.8357,118.4209,-0.043838,-0.00873249,0.0,0 STARLINK-5612,1 55754U 23028P   23114.58334491 -.00873249  00000-0 -43838-1 0  9991,2 55754  70.0025  12.5440 0003243 266.8357 118.4209 15.19707637  1302,6884.86,94.755,508.958,504.493,0.0
55754.0,STARLINK-5612,PAYLOAD,2023-04-25 06:00:00,15.18444739,0.0003153,70.0024,10.8082,273.4131,156.5498,-0.05004,-0.00954373,0.0,0 STARLINK-5612,1 55754U 23028P   23115.25001157 -.00954373  00000-0 -50040-1 0  9997,2 55754  70.0024  10.8082 0003153 273.4131 156.5498 15.18444739  8836,6888.677,94.834,512.714,508.37,0.0
55754.0,STARLINK-5612,PAYLOAD,2023-04-25 14:00:01,15.17755702,0.0003157,70.0025,9.9417,267.4807,183.7412,-0.046876,-0.00881766,0.0,0 STARLINK-5612,1 55754U 23028P   23115.58335648 -.00881766  00000-0 -46876-1 0  9995,2 55754  70.0025   9.9417 0003157 267.4807 183.7412 15.17755702  1302,6890.762,94.877,514.803,510.452,0.0
55754.0,STARLINK-5612,PAYLOAD,2023-04-26 14:00:01,15.15804222,0.000305,70.0024,7.3473,269.163,240.8564,-0.050077,-0.00890088,0.0,0 STARLINK-5612,1 55754U 23028P   23116.58334491 -.00890088  00000-0 -50077-1 0  9996,2 55754  70.0024   7.3473 0003050 269.1630 240.8564 15.15804222  1303,6896.675,94.999,520.644,516.437,0.0
55754.0,STARLINK-5612,PAYLOAD,2023-04-26 22:00:00,15.15151976,0.0003041,70.0027,6.4841,272.326,255.7589,-0.052459,-0.00913472,0.0,0 STARLINK-5612,1 55754U 23028P   23116.91667824 -.00913472  00000-0 -52459-1 0  9991,2 55754  70.0027   6.4841 0003041 272.3260 255.7589 15.15151976  1303,6898.654,95.04,522.617,518.421,0.0
55754.0,STARLINK-5612,PAYLOAD,2023-04-27 14:00:01,15.13852438,0.0003031,70.0025,4.7606,266.1945,295.7082,-0.053455,-0.0089834,0.0,0 STARLINK-5612,1 55754U 23028P   23117.58335648 -.00898340  00000-0 -53455-1 0  9994,2 55754  70.0025   4.7606 0003031 266.1945 295.7082 15.13852438  1302,6902.602,95.122,526.559,522.374,0.0
55754.0,STARLINK-5612,PAYLOAD,2023-04-27 22:00:00,15.13190838,0.0003031,70.0028,3.9,270.5674,306.9947,-0.054933,-0.00905585,0.0,0 STARLINK-5612,1 55754U 23028P   23117.91667824 -.00905585  00000-0 -54933-1 0  9997,2 55754  70.0028   3.9000 0003031 270.5674 306.9947 15.13190838  9236,6904.613,95.163,528.571,524.386,0.0
55754.0,STARLINK-5612,PAYLOAD,2023-04-28 14:00:01,15.11899622,0.0003063,70.0027,2.1818,264.5246,342.0954,-0.056877,-0.00904424,0.0,0 STARLINK-5612,1 55754U 23028P   23118.58334491 -.00904424  00000-0 -56877-1 0  9992,2 55754  70.0027   2.1818 0003063 264.5246 342.0954 15.11899622  1300,6908.544,95.244,532.525,528.293,0.0
55754.0,STARLINK-5612,PAYLOAD,2023-04-28 22:00:00,15.11230399,0.0003052,70.003,1.3239,269.3822,350.6144,-0.057601,-0.008994,0.0,0 STARLINK-5612,1 55754U 23028P   23118.91667824 -.00899400  00000-0 -57601-1 0  9991,2 55754  70.0030   1.3239 0003052 269.3822 350.6144 15.11230399  9385,6910.584,95.287,534.558,530.339,0.0
55754.0,STARLINK-5612,PAYLOAD,2023-04-29 14:00:01,15.09946716,0.0003126,70.0028,359.6108,263.7572,20.665,-0.060519,-0.00911042,0.0,0 STARLINK-5612,1 55754U 23028P   23119.58335648 -.00911042  00000-0 -60519-1 0  9990,2 55754  70.0028 359.6108 0003126 263.7572  20.6650 15.09946716  1302,6914.5,95.368,538.526,534.203,0.0
